CCSDS_OMM_VERS = 2.0
CREATION_DATE  = 
ORIGINATOR     = 

OBJECT_NAME    = ALSAT-3A
OBJECT_ID      = 2026-009A
CENTER_NAME    = EARTH
REF_FRAME      = TEME
TIME_SYSTEM    = UTC
MEAN_ELEMENT_THEORY = SGP/SGP4

EPOCH          = 2026-02-14T05:31:32.824128
MEAN_MOTION    = 15.23532730
ECCENTRICITY   = .00129091
INCLINATION    = 97.4675
RA_OF_ASC_NODE = 119.8628
ARG_OF_PERICENTER = 151.4762
MEAN_ANOMALY   = 208.7184

EPHEMERIS_TYPE = 0
CLASSIFICATION_TYPE = U
NORAD_CAT_ID   = 67474
ELEMENT_SET_NO = 999
REV_AT_EPOCH   = 455
BSTAR          = .31206426E-3
MEAN_MOTION_DOT = .7401E-4
MEAN_MOTION_DDOT = 0

CCSDS_OMM_VERS = 2.0
CREATION_DATE  = 
ORIGINATOR     = 

OBJECT_NAME    = CZ-2C R/B
OBJECT_ID      = 2026-009B
CENTER_NAME    = EARTH
REF_FRAME      = TEME
TIME_SYSTEM    = UTC
MEAN_ELEMENT_THEORY = SGP/SGP4

EPOCH          = 2026-02-14T05:41:22.761600
MEAN_MOTION    = 15.03162633
ECCENTRICITY   = .01003275
INCLINATION    = 97.1732
RA_OF_ASC_NODE = 117.5121
ARG_OF_PERICENTER = 119.8016
MEAN_ANOMALY   = 241.3233

EPHEMERIS_TYPE = 0
CLASSIFICATION_TYPE = U
NORAD_CAT_ID   = 67475
ELEMENT_SET_NO = 999
REV_AT_EPOCH   = 455
BSTAR          = .19075832E-3
MEAN_MOTION_DOT = .2818E-4
MEAN_MOTION_DDOT = 0

CCSDS_OMM_VERS = 2.0
CREATION_DATE  = 
ORIGINATOR     = 

OBJECT_NAME    = TIANQI-37
OBJECT_ID      = 2026-010A
CENTER_NAME    = EARTH
REF_FRAME      = TEME
TIME_SYSTEM    = UTC
MEAN_ELEMENT_THEORY = SGP/SGP4

EPOCH          = 2026-02-08T06:39:39.190752
MEAN_MOTION    = 14.13528441
ECCENTRICITY   = .0012909
INCLINATION    = 44.9825
RA_OF_ASC_NODE = 296.6529
ARG_OF_PERICENTER = 70.2546
MEAN_ANOMALY   = 289.9683

EPHEMERIS_TYPE = 0
CLASSIFICATION_TYPE = U
NORAD_CAT_ID   = 67476
ELEMENT_SET_NO = 999
REV_AT_EPOCH   = 332
BSTAR          = .15719E-3
MEAN_MOTION_DOT = .165E-5
MEAN_MOTION_DDOT = 0

CCSDS_OMM_VERS = 2.0
CREATION_DATE  = 
ORIGINATOR     = 

OBJECT_NAME    = TIANQI-38
OBJECT_ID      = 2026-010B
CENTER_NAME    = EARTH
REF_FRAME      = TEME
TIME_SYSTEM    = UTC
MEAN_ELEMENT_THEORY = SGP/SGP4

EPOCH          = 2026-02-08T06:33:16.657344
MEAN_MOTION    = 14.13905796
ECCENTRICITY   = .0011754
INCLINATION    = 44.9788
RA_OF_ASC_NODE = 296.6199
ARG_OF_PERICENTER = 75.6443
MEAN_ANOMALY   = 284.5700

EPHEMERIS_TYPE = 0
CLASSIFICATION_TYPE = U
NORAD_CAT_ID   = 67477
ELEMENT_SET_NO = 999
REV_AT_EPOCH   = 332
BSTAR          = .17865E-3
MEAN_MOTION_DOT = .208E-5
MEAN_MOTION_DDOT = 0

CCSDS_OMM_VERS = 2.0
CREATION_DATE  = 
ORIGINATOR     = 

OBJECT_NAME    = TIANQI-39
OBJECT_ID      = 2026-010C
CENTER_NAME    = EARTH
REF_FRAME      = TEME
TIME_SYSTEM    = UTC
MEAN_ELEMENT_THEORY = SGP/SGP4

EPOCH          = 2026-02-08T10:04:48.152928
MEAN_MOTION    = 14.13055230
ECCENTRICITY   = .00164883
INCLINATION    = 44.9839
RA_OF_ASC_NODE = 296.0175
ARG_OF_PERICENTER = 83.0314
MEAN_ANOMALY   = 277.2399

EPHEMERIS_TYPE = 0
CLASSIFICATION_TYPE = U
NORAD_CAT_ID   = 67478
ELEMENT_SET_NO = 999
REV_AT_EPOCH   = 334
BSTAR          = .1513172E-3
MEAN_MOTION_DOT = .151E-5
MEAN_MOTION_DDOT = 0

CCSDS_OMM_VERS = 2.0
CREATION_DATE  = 
ORIGINATOR     = 

OBJECT_NAME    = TIANQI-40
OBJECT_ID      = 2026-010D
CENTER_NAME    = EARTH
REF_FRAME      = TEME
TIME_SYSTEM    = UTC
MEAN_ELEMENT_THEORY = SGP/SGP4

EPOCH          = 2026-02-09T04:36:40.071744
MEAN_MOTION    = 14.13182235
ECCENTRICITY   = .0011741
INCLINATION    = 44.9786
RA_OF_ASC_NODE = 292.4342
ARG_OF_PERICENTER = 80.4003
MEAN_ANOMALY   = 279.8161

EPHEMERIS_TYPE = 0
CLASSIFICATION_TYPE = U
NORAD_CAT_ID   = 67479
ELEMENT_SET_NO = 999
REV_AT_EPOCH   = 345
BSTAR          = .15351E-3
MEAN_MOTION_DOT = .156E-5
MEAN_MOTION_DDOT = 0

CCSDS_OMM_VERS = 2.0
CREATION_DATE  = 
ORIGINATOR     = 

OBJECT_NAME    = SZ-20 MODULE
OBJECT_ID      = 2025-082C
CENTER_NAME    = EARTH
REF_FRAME      = TEME
TIME_SYSTEM    = UTC
MEAN_ELEMENT_THEORY = SGP/SGP4

EPOCH          = 2026-02-13T07:01:16.901472
MEAN_MOTION    = 15.62764588
ECCENTRICITY   = .00075781
INCLINATION    = 41.4801
RA_OF_ASC_NODE = 356.0296
ARG_OF_PERICENTER = 171.4719
MEAN_ANOMALY   = 188.6251

EPHEMERIS_TYPE = 0
CLASSIFICATION_TYPE = U
NORAD_CAT_ID   = 67481
ELEMENT_SET_NO = 999
REV_AT_EPOCH   = 27380
BSTAR          = .26471402E-3
MEAN_MOTION_DOT = .24261E-3
MEAN_MOTION_DDOT = 0

CCSDS_OMM_VERS = 2.0
CREATION_DATE  = 
ORIGINATOR     = 

OBJECT_NAME    = 2025-313BE
OBJECT_ID      = 2025-313BE
CENTER_NAME    = EARTH
REF_FRAME      = TEME
TIME_SYSTEM    = UTC
MEAN_ELEMENT_THEORY = SGP/SGP4

EPOCH          = 2026-02-14T04:25:36.252768
MEAN_MOTION    = 15.26139589
ECCENTRICITY   = .00083202
INCLINATION    = 97.4061
RA_OF_ASC_NODE = 122.0055
ARG_OF_PERICENTER = 71.4005
MEAN_ANOMALY   = 288.8136

EPHEMERIS_TYPE = 0
CLASSIFICATION_TYPE = U
NORAD_CAT_ID   = 67482
ELEMENT_SET_NO = 999
REV_AT_EPOCH   = 438
BSTAR          = .26548588E-2
MEAN_MOTION_DOT = .69108E-3
MEAN_MOTION_DDOT = 0

CCSDS_OMM_VERS = 2.0
CREATION_DATE  = 
ORIGINATOR     = 

OBJECT_NAME    = ION SCV-021
OBJECT_ID      = 2025-276DT
CENTER_NAME    = EARTH
REF_FRAME      = TEME
TIME_SYSTEM    = UTC
MEAN_ELEMENT_THEORY = SGP/SGP4

EPOCH          = 2026-02-03T04:28:31.154016
MEAN_MOTION    = 14.97059561
ECCENTRICITY   = .00113647
INCLINATION    = 97.5347
RA_OF_ASC_NODE = 109.4970
ARG_OF_PERICENTER = 207.9438
MEAN_ANOMALY   = 152.1175

EPHEMERIS_TYPE = 0
CLASSIFICATION_TYPE = U
NORAD_CAT_ID   = 67483
ELEMENT_SET_NO = 999
REV_AT_EPOCH   = 255
BSTAR          = -.1218394E-1
MEAN_MOTION_DOT = -.13788E-2
MEAN_MOTION_DDOT = 0

CCSDS_OMM_VERS = 2.0
CREATION_DATE  = 
ORIGINATOR     = 

OBJECT_NAME    = STARLINK-36551
OBJECT_ID      = 2026-012A
CENTER_NAME    = EARTH
REF_FRAME      = TEME
TIME_SYSTEM    = UTC
MEAN_ELEMENT_THEORY = SGP/SGP4

EPOCH          = 2026-02-14T06:00:02.000160
MEAN_MOTION    = 15.37862457
ECCENTRICITY   = .00009289
INCLINATION    = 42.9999
RA_OF_ASC_NODE = 87.2660
ARG_OF_PERICENTER = 274.0156
MEAN_ANOMALY   = 9.0714

EPHEMERIS_TYPE = 0
CLASSIFICATION_TYPE = U
NORAD_CAT_ID   = 67493
ELEMENT_SET_NO = 999
REV_AT_EPOCH   = 530
BSTAR          = -.54781807E-1
MEAN_MOTION_DOT = -.1869381E-1
MEAN_MOTION_DDOT = 0

CCSDS_OMM_VERS = 2.0
CREATION_DATE  = 
ORIGINATOR     = 

OBJECT_NAME    = STARLINK-36396
OBJECT_ID      = 2026-012B
CENTER_NAME    = EARTH
REF_FRAME      = TEME
TIME_SYSTEM    = UTC
MEAN_ELEMENT_THEORY = SGP/SGP4

EPOCH          = 2026-02-14T05:54:05.501664
MEAN_MOTION    = 15.50624752
ECCENTRICITY   = .00003067
INCLINATION    = 43.0007
RA_OF_ASC_NODE = 87.9313
ARG_OF_PERICENTER = 178.2860
MEAN_ANOMALY   = 181.8002

EPHEMERIS_TYPE = 0
CLASSIFICATION_TYPE = U
NORAD_CAT_ID   = 67494
ELEMENT_SET_NO = 999
REV_AT_EPOCH   = 416
BSTAR          = .95003168E-3
MEAN_MOTION_DOT = .55882E-3
MEAN_MOTION_DDOT = 0

CCSDS_OMM_VERS = 2.0
CREATION_DATE  = 
ORIGINATOR     = 

OBJECT_NAME    = STARLINK-36550
OBJECT_ID      = 2026-012C
CENTER_NAME    = EARTH
REF_FRAME      = TEME
TIME_SYSTEM    = UTC
MEAN_ELEMENT_THEORY = SGP/SGP4

EPOCH          = 2026-02-13T04:17:15.050688
MEAN_MOTION    = 15.50564110
ECCENTRICITY   = .00027375
INCLINATION    = 43.0016
RA_OF_ASC_NODE = 93.6684
ARG_OF_PERICENTER = 258.5376
MEAN_ANOMALY   = 101.5177

EPHEMERIS_TYPE = 0
CLASSIFICATION_TYPE = U
NORAD_CAT_ID   = 67495
ELEMENT_SET_NO = 999
REV_AT_EPOCH   = 400
BSTAR          = .11859973E-2
MEAN_MOTION_DOT = .69826E-3
MEAN_MOTION_DDOT = 0

